FUNCUBE-1 (AO-73)       
1 39444U 13066AE  26068.90648558  .00009564  00000+0  61715-3 0  9993
2 39444  97.8195  38.4486 0037312 178.1154 182.0221 15.07917828664696
STARLINK-5833           
1 55773U 23028AJ  26068.70689438  .00000549  00000+0  53827-4 0  9995
2 55773  70.0002 224.4904 0003046 270.7913  89.2897 14.98333799166535
